     4.02           N: GNSS NAV DATA    M: Mixed            RINEX VERSION / TYPE
BNC 2.13.4          genelee             20260410 083124 UTC PGM / RUN BY / DATE
Source: RTCM_3.3 products.igs-ip.net/BCEP00BKG0             COMMENT
    18                                                      LEAP SECONDS
                                                            END OF HEADER
> EPH E08 FNAV
E08 2026 04 10 08 20 00-1.247051986866e-04-7.034373084025e-12 0.000000000000e+00
     8.000000000000e+00-1.175312500000e+02 2.908335429559e-09 1.580974330635e+00
    -5.578622221947e-06 4.066346446052e-04 7.001683115959e-06 5.440620220184e+03
     4.620000000000e+05 1.490116119385e-08-1.573024569004e+00 3.166496753693e-08
     9.731589165922e-01 1.926562500000e+02-1.692636608880e-01-5.468084910542e-09
     2.103659054415e-10 2.580000000000e+02 2.413000000000e+03 0.000000000000e+00
     3.120000000000e+00 0.000000000000e+00-6.053596735001e-09 0.000000000000e+00
     9.999000000000e+08                                                         
> EPH E11 FNAV
E11 2026 04 10 08 20 00 4.675920412410e-03 1.227817847393e-10-3.469446951954e-18
     8.000000000000e+00 8.518750000000e+01 2.492603826954e-09-1.244287411005e+00
     3.941357135773e-06 5.323295481503e-04 4.217028617859e-06 5.440610084534e+03
     4.620000000000e+05 9.126961231232e-08 2.624667166551e+00-1.862645149231e-08
     9.951632291830e-01 2.661250000000e+02 7.716659839913e-01-5.503443526227e-09
     3.678724662220e-11 2.580000000000e+02 2.413000000000e+03 0.000000000000e+00
     3.120000000000e+00 0.000000000000e+00-1.420266926289e-08 0.000000000000e+00
     9.999000000000e+08                                                         
> EPH E15 FNAV
E15 2026 04 10 08 20 00-2.494662767276e-04-2.813749233610e-12 0.000000000000e+00
     8.000000000000e+00 8.265625000000e+01 2.365812831315e-09-2.542961853254e+00
     3.905966877937e-06 3.351526102051e-04 5.578622221947e-06 5.440611713409e+03
     4.620000000000e+05-2.235174179077e-08 2.624865311490e+00 4.097819328308e-08
     9.982191919047e-01 2.379062500000e+02-2.505877626033e-01-5.411296830805e-09
     5.250218692682e-11 2.580000000000e+02 2.413000000000e+03 0.000000000000e+00
     3.120000000000e+00 0.000000000000e+00 3.958120942116e-09 0.000000000000e+00
     9.999000000000e+08                                                         
> EPH E16 FNAV
E16 2026 04 10 08 20 00-2.466852311045e-05-2.486899575160e-12 0.000000000000e+00
     8.000000000000e+00 3.778125000000e+01 3.396927209939e-09-1.500823158600e+00
     1.790001988411e-06 3.763322019950e-04 7.098540663719e-06 5.440603881836e+03
     4.620000000000e+05-5.587935447693e-09 5.222686797526e-01 5.774199962616e-08
     9.638756510041e-01 1.896250000000e+02 3.133129872921e+00-5.517372677861e-09
    -1.614352958566e-10 2.580000000000e+02 2.413000000000e+03 0.000000000000e+00
     3.120000000000e+00 0.000000000000e+00-4.889443516731e-09 0.000000000000e+00
     9.999000000000e+08                                                         
> EPH E25 FNAV
E25 2026 04 10 08 20 00 2.198718721047e-05 1.421085471520e-14 0.000000000000e+00
     8.000000000000e+00 3.537500000000e+01 3.454786762879e-09 8.703614932726e-01
     1.810491085052e-06 8.379167411476e-05 7.059425115585e-06 5.440599752426e+03
     4.620000000000e+05 9.499490261078e-08 5.257353537992e-01 7.450580596924e-09
     9.619351603920e-01 1.873437500000e+02 2.645746301953e-02-5.586661278295e-09
    -1.964367538078e-10 2.580000000000e+02 2.413000000000e+03 0.000000000000e+00
     3.120000000000e+00 0.000000000000e+00 1.629814505577e-09 0.000000000000e+00
     9.999000000000e+08                                                         
> EPH E26 FNAV
E26 2026 04 10 08 20 00 2.718809992075e-04 1.091393642128e-11 0.000000000000e+00
     8.000000000000e+00 6.068750000000e+01 2.495103931094e-09 2.273954297473e+00
     2.793967723846e-06 2.123083686456e-04 5.312263965607e-06 5.440610223770e+03
     4.620000000000e+05 4.097819328308e-08 2.621942651327e+00-2.048909664154e-08
     9.915493607080e-01 2.436250000000e+02-3.692828542046e-01-5.446655446490e-09
    -6.321691895271e-11 2.580000000000e+02 2.413000000000e+03 0.000000000000e+00
     3.120000000000e+00 0.000000000000e+00-6.519258022308e-09 0.000000000000e+00
     9.999000000000e+08                                                         
> EPH E28 FNAV
E28 2026 04 10 08 20 00-3.427872434258e-05-3.069544618484e-12 0.000000000000e+00
     8.000000000000e+00-9.528125000000e+01 3.352996808633e-09 1.700433802785e+00
    -4.472211003304e-06 1.342453761026e-04 7.588416337967e-06 5.440608139038e+03
     4.620000000000e+05 1.303851604462e-08-1.556530651887e+00-2.421438694000e-08
     9.471118664623e-01 1.662187500000e+02-3.074443868185e+00-5.654878405527e-09
     1.939366496685e-10 2.580000000000e+02 2.413000000000e+03 0.000000000000e+00
     3.120000000000e+00 4.800000000000e+01 0.000000000000e+00 0.000000000000e+00
     9.999000000000e+08                                                         
> EPH E32 FNAV
E32 2026 04 10 08 20 00-1.224677544087e-05-2.231104190287e-12 0.000000000000e+00
     8.000000000000e+00-1.300000000000e+02 3.256207062666e-09 2.768238728049e+00
    -5.975365638733e-06 2.093168441206e-04 7.053837180138e-06 5.440616123199e+03
     4.620000000000e+05-5.587935447693e-09-1.556551103481e+00 3.352761268616e-08
     9.471452678079e-01 1.790312500000e+02-9.987877623308e-01-5.660592929274e-09
     2.378670509746e-10 2.580000000000e+02 2.413000000000e+03 0.000000000000e+00
     3.120000000000e+00 4.800000000000e+01-3.026798367500e-09 0.000000000000e+00
     9.999000000000e+08                                                         
> EPH E33 FNAV
E33 2026 04 10 08 20 00-1.023744698614e-05-1.506350599811e-12 0.000000000000e+00
     8.000000000000e+00 6.565625000000e+01 2.339026001250e-09 1.560649177360e+00
     3.203749656677e-06 1.146917929873e-04 5.291774868965e-06 5.440613344193e+03
     4.620000000000e+05-8.381903171539e-08 2.624925045361e+00-4.470348358154e-08
     9.982824587228e-01 2.476250000000e+02-4.225903704023e-01-5.319150135382e-09
    -5.071639825584e-11 2.580000000000e+02 2.413000000000e+03 0.000000000000e+00
     3.600000000000e+00 0.000000000000e+00-5.587935447693e-09 0.000000000000e+00
     9.999000000000e+08                                                         
> EPH E36 FNAV
E36 2026 04 10 08 20 00-5.492486525327e-04-5.485389920068e-12 0.000000000000e+00
     8.000000000000e+00 9.003125000000e+01 2.467602785561e-09-1.272790646462e+00
     4.084780812263e-06 3.447326598689e-04 4.693865776062e-06 5.440610336304e+03
     4.620000000000e+05 6.519258022308e-08 2.624952916877e+00-5.960464477539e-08
     9.982680504427e-01 2.590312500000e+02 4.387663778665e-02-5.478442484834e-09
    -2.571535686212e-11 2.580000000000e+02 2.413000000000e+03 0.000000000000e+00
     3.600000000000e+00 0.000000000000e+00 4.190951585770e-09 0.000000000000e+00
     9.999000000000e+08                                                         
> EPH E19 FNAV
E19 2026 04 10 08 20 00 2.870504686143e-03 2.943068011518e-11 0.000000000000e+00
     8.000000000000e+00-1.031875000000e+02 2.945479833915e-09 1.019700451302e-01
    -4.729256033897e-06 4.113989416510e-04 7.625669240952e-06 5.440624673843e+03
     4.620000000000e+05 1.676380634308e-08-1.568003980448e+00-1.117587089539e-08
     9.728229135677e-01 1.812812500000e+02-1.008677347483e+00-5.468084910542e-09
     1.796503403006e-10 2.580000000000e+02 2.413000000000e+03 0.000000000000e+00
     3.120000000000e+00 0.000000000000e+00-5.122274160385e-09 0.000000000000e+00
     9.999000000000e+08                                                         
> EPH E23 FNAV
E23 2026 04 10 08 20 00-3.116455627605e-05-1.293187779083e-12 0.000000000000e+00
     8.000000000000e+00 3.675000000000e+01 3.360139963317e-09 1.065972662794e+00
     1.635402441025e-06 2.780368085951e-04 6.791204214096e-06 5.440606954575e+03
     4.620000000000e+05-7.636845111847e-08 5.223971810137e-01-9.313225746155e-08
     9.638544869682e-01 1.912187500000e+02 2.160606872189e+00-5.592018644308e-09
    -2.557249376844e-10 2.580000000000e+02 2.413000000000e+03 0.000000000000e+00
     3.120000000000e+00 0.000000000000e+00-1.164153218269e-09 0.000000000000e+00
     9.999000000000e+08                                                         
> EPH E29 FNAV
E29 2026 04 10 08 20 00-1.954746549018e-04-3.595346242946e-12 0.000000000000e+00
     8.000000000000e+00-9.890625000000e+01 3.116915546329e-09 1.266190426759e+00
    -4.580244421959e-06 8.136290125549e-05 6.891787052155e-06 5.440616540909e+03
     4.620000000000e+05 1.303851604462e-08-1.575533151668e+00-1.862645149231e-09
     9.608101149465e-01 1.968125000000e+02-1.431491996393e+00-5.564160341041e-09
     1.864363372504e-10 2.580000000000e+02 2.413000000000e+03 0.000000000000e+00
     3.600000000000e+00 0.000000000000e+00-4.656612873077e-09 0.000000000000e+00
     9.999000000000e+08                                                         
> EPH S37 SBAS
S37 2026 04 10 08 32 16-4.796311259270e-08 0.000000000000e+00 9.999000000000e+08
    -2.538716928000e+04-7.143750000000e-04 0.000000000000e+00 4.700000000000e+01
     3.366161184000e+04 1.987500000000e-04 0.000000000000e+00 8.192000000000e+03
    -4.458040000000e+01 2.408000000000e-03 0.000000000000e+00 1.500000000000e+01
> EPH S22 SBAS
S22 2026 04 10 08 32 16 0.000000000000e+00 0.000000000000e+00 9.999000000000e+08
    -3.389392800000e+04 0.000000000000e+00 0.000000000000e+00 4.700000000000e+01
     2.508018800000e+04 0.000000000000e+00 0.000000000000e+00 8.192000000000e+03
     0.000000000000e+00 0.000000000000e+00 0.000000000000e+00 1.500000000000e+01
> EPH E30 INAV
